#dP2023  7 15  0  0  0.00000000      96 __u+U ITR00 EXT  IAC
## 2270 518400.00000000   900.00000000 60140 0.0000000000000
+  117   C06C07C08C09C10C11C12C13C14C16C19C20C21C22C23C24C25
+        C26C27C28C29C30C32C33C34C35C36C37C38C39C40C41C42C43
+        C44C45C46E02E03E04E05E07E08E09E10E11E12E13E14E15E18
+        E19E21E24E25E26E27E30E31E34E36G01G02G03G04G05G06G07
+        G08G09G10G11G12G13G14G15G16G17G18G19G20G21G22G23G24
+        G25G26G27G28G29G31G32J02J03J04R01R02R03R04R05R07R08
+        R09R11R12R13R14R15R16R17R18R19R20R21R22R24R25  0  0
++         0  0  0  0  0  0  0  0  0  0  0  0  0  0  0  0  0
++         0  0  0  0  0  0  0  0  0  0  0  0  0  0  0  0  0
++         0  0  0  0  0  0  0  0  0  0  0  0  0  0  0  0  0
++         0  0  0  0  0  0  0  0  0  0  0  0  0  0  0  0  0
++         0  0  0  0  0  0  0  0  0  0  0  0  0  0  0  0  0
++         0  0  0  0  0  0  0  0  0  0  0  0  0  0  0  0  0
++         0  0  0  0  0  0  0  0  0  0  0  0  0  0  0  0  0
%c M  cc GPS ccc cccc cccc cccc cccc ccccc ccccc ccccc ccccc
%c cc cc ccc ccc cccc cccc cccc cccc ccccc ccccc ccccc ccccc
%f  0.0000000  0.000000000  0.00000000000  0.000000000000000
%f  0.0000000  0.000000000  0.00000000000  0.000000000000000
%i    0    0    0    0      0      0      0      0         0
%i    0    0    0    0      0      0      0      0         0
/* IAC                                ULTRA-RAPID PREDICTION
/* S/V CLOCKS ARE ALIGNED TO GNSS TIME                      
/* G:C1WC2W R:C1PC2P E:C1XC5X C:C2IC6I J:C1CC2S             
/* PCV:IGS20_2247 OL/AL:FES2004  NONE     YN ORB:CoN CLK:CoN
*  2023 07 15  5 45  0.00000000
PC06 -19679.394342  28880.911280 -23745.665507    270.882489
PC07  -5910.186616  40321.991428 -10272.553866   -324.876280
PC08   -403.192554  22894.994319  35412.149163    427.593162
PC09 -10433.827865  27808.972327 -29704.651441    414.757509
PC10  -1108.440325  41496.591054  -5059.108338   -114.937130
PC11  23448.038291  -7414.504741  13277.957318    726.857613
PC12  13194.865093   8891.297045  22959.305628    789.312051
PC13   6163.046007  26363.905427  32535.678595    315.735469
PC14  15835.074157   -555.962942 -22956.315524     60.550014
PC16 -20476.725095  28516.178956 -23301.543569      5.373509
PC19 -13033.458503  11358.639225  21919.792520   -939.881810
PC20 -16138.156463  -8643.036935  21080.208080    434.730147
PC21   9685.776414  25087.672206  -7384.954794   -934.999270
PC22  -2268.811054  25885.407885  10127.490377   -395.717700
PC23   5804.811973 -15283.248544  22627.662864   -943.192825
PC24  26187.953624   9666.813440   -407.648463    174.285007
PC25  22013.855410  -5144.598653  16367.477850    168.231745
PC26  15745.093716  17016.480824 -15567.413587   -148.953064
PC27  -5924.519469 -15450.811104 -22492.182726    169.792765
PC28  10889.642838 -21639.574376 -13858.565355    126.563385
PC29 -22475.725146  15862.991434  -4685.340074    147.442251
PC30 -19938.420372   -419.527149 -19537.054827     -2.244420
PC32  -9857.038656 -25075.793651   7313.411596   -539.059690
PC33  13005.687024 -11387.615084 -21911.934940   -913.859025
PC34  20614.644176   -804.605077  18769.701494    215.091631
PC35 -10459.252490  22098.279289  13470.442150    588.265704
PC36 -22599.981758   4058.682811 -15826.520232   -328.702455
PC37 -14357.930713 -17545.277039  16276.790588   -793.461730
PC38  -9470.751540  20921.626413  35379.997203     91.657568
PC39 -24891.474479  29192.768172 -17704.536016     -3.826600
PC40 -11556.458257  37799.487293 -14260.057010    -29.476943
PC41   2601.628286 -25638.434305 -10675.596172   -902.676108
PC42  16057.098022  10114.988017 -20410.027972   -611.897127
PC43  22713.905081 -15247.833763   5453.328279     30.760147
PC44   6368.143559  15462.631200  22327.296094    169.082186
PC45  -5184.473628  15366.663426 -22702.777945     -1.980693
PC46 -26446.569087  -8793.168745   -959.320337    -68.989655
PE02 -13462.246254 -25349.675243   7214.775210     49.838432
PE03  -3385.653468 -23934.264884  17094.356538    -36.158735
PE04  15658.939619   6596.671888 -24228.811440   -167.003829
PE05  11028.034995 -27472.780350   -143.453884     -0.283435
PE07 -18953.760127  14598.633994  17428.457543    -60.047302
PE08 -15361.868577  -6961.393320  24327.973040   -114.629207
PE09  18855.601206 -14541.621677 -17590.905067    -85.114281
PE10  29272.618668  -1763.338518   4043.765040   -548.619006
PE11  27670.614220  -8283.716714  -6469.265893   2488.339087
PE12  26218.127341   4614.133068  12917.906307   -618.803883
PE13 -27953.492074   7870.385441   5734.427196    -19.327658
PE14 -15150.722618 -13738.243559 -23496.927919    282.619411
PE15 -26026.581950  -4769.663742 -13272.469830    -37.208073
PE18  18717.027718  -3313.690326  17939.009282    297.559292
PE19   1254.181858  25304.561962 -15295.460066  -2073.591410
PE21  -2283.537785  20609.612679 -21118.635657   -540.801189
PE24  18023.528937  -2999.122092  23281.970325   -210.267832
PE25   2602.632331 -20401.330643  21297.642492   -608.317425
PE26 -12708.539758  15989.794459  21417.841608    163.401541
PE27 -17600.231895   3715.782765 -23500.295977    -99.539714
PE30 -22300.062823 -15630.256938 -11596.927034   -336.662637
PE31  22392.086065  15170.814130  12034.077310     -0.423863
PE34  -8928.042318 -14438.591553 -24258.628165    -56.156144
PE36  13485.557122 -15738.324788 -21136.952103    -86.137965
PG01  -7183.616842 -13770.779835 -21938.036163    172.958748
PG02   -205.597829 -15001.588053 -21402.317118   -576.017762
PG03 -12096.604515 -23002.962115  -5912.750844   -231.960257
PG04  -2985.547915 -20526.584712  16532.770300     96.170306
PG05   -553.684556  19146.326462  18171.119409   -134.944280
PG06 -25734.207529   5437.686335   4106.804287    577.776416
PG07 -21880.980791  -7537.954145  13922.168937    124.725656
PG08   4894.847687 -25021.315826  -6747.075173   -132.254813
PG09 -10856.821076 -12275.096487  20816.955092   -111.873121
PG10  18621.645004   4336.669559 -18394.159684    -45.213607
PG11 -16410.016736  12607.494141  16632.035608   -276.634940
PG12   7873.718060  23867.582919  -8982.765507   -400.853739
PG13 -13193.890671  22904.620165   -933.230796    547.277910
PG14 -19545.661682  -7389.735951 -16469.983051    122.711609
PG15  -1062.045741  25413.887137  -7641.111135     58.150530
PG16   6269.753896 -16018.831044  19802.024009   -480.606728
PG17 -17238.842545   5247.038812 -19117.385236    720.971356
PG18  23476.722053   5465.542358  11338.903462   -346.014848
PG19 -18436.496744  11585.553142 -15195.738248    344.068542
PG20  -9006.081437  12733.001884  21542.642218    422.605579
PG21   2331.116611 -15351.021993 -20883.246459    152.131552
PG22  17647.744500 -15391.093777 -11929.951860    512.936540
PG23  19921.196139  14989.211864  -9388.825568     43.423680
PG24   2916.423208  15709.012714 -21575.543450   -258.230738
PG25  17363.791687  20126.473744   2249.282941    456.188256
PG26  14710.983101  -6716.145160  20990.683937    236.417628
PG27  12775.152792 -22610.053748   4147.248378     -3.360273
PG28  25960.706388  -5266.248876   1905.443120     82.479101
PG29   8480.956100  14080.598014  20788.749807   -605.531498
PG31  21238.232280 -10624.931909  12139.624882   -220.078142
PG32  17269.785473  -8320.600894 -18118.092442   -521.367220
PJ02 -21781.466055  20173.834108 -25316.598346     -1.395146
PJ03 -29378.755881  28928.170747  13614.953790     -0.100434
PJ04 -26088.401716  28596.250297  22621.522260     96.873728
PR01   6951.315054  20493.037242 -13493.651214     61.415111
PR02  10661.399606   3463.272035 -22874.614159    -22.609532
PR03   8685.581973 -15303.690184 -18396.972829     81.543666
PR04   2037.636063 -25115.546167  -3902.174682    194.998840
PR05  -5659.045703 -21363.666827  12728.646720    115.776737
PR07  -8491.634597  16082.672838  17947.901345     60.196518
PR08  -1872.057902  25173.961480   3831.633718    -71.654640
PR09 -22915.480610  -7839.356092  -8114.248832    131.243175
PR11   1170.412551  12673.765441 -22087.786880   -104.813408
PR12  17909.456764  15463.851615  -9512.676783     29.098458
PR13  22915.047654   9279.221749   6270.604487    -37.112147
PR14  14253.687716  -3611.558231  20854.826833     24.960610
PR15  -2308.531308 -13326.105080  21654.258457     87.822493
PR16 -17841.267716 -15352.891915   9893.308985     16.663850
PR17  21498.430166 -13540.482756  -2522.993150     -0.076779
PR18  10999.382522 -15051.468047 -17378.722646     91.637502
PR19  -3478.298469  -9856.301926 -23274.476707   -239.869680
PR20 -20354.774531   2938.608794 -15112.397652    -96.612606
PR21 -21114.831053  13766.499213   3797.181171    -22.812910
PR22 -10496.515548  14868.042414  17898.741184     95.319710
PR24  20653.881785  -3788.625083  14507.842092    -16.579538
PR25 -22063.315247  12543.976887   2430.270079     47.197365
EOF
